OBJECT_NAME,OBJECT_ID,EPOCH,MEAN_MOTION,ECCENTRICITY,INCLINATION,RA_OF_ASC_NODE,ARG_OF_PERICENTER,MEAN_ANOMALY,EPHEMERIS_TYPE,CLASSIFICATION_TYPE,NORAD_CAT_ID,ELEMENT_SET_NO,REV_AT_EPOCH,BSTAR,MEAN_MOTION_DOT,MEAN_MOTION_DDOT
GAOFEN-11 01,2018-063A,2026-07-12T07:46:51.477888,15.56011015,.0002894,97.1288,260.1425,210.9340,149.1745,0,U,43585,999,44425,.14375982E-3,.9904E-4,0
ICESAT-2,2018-070A,2026-07-12T05:36:22.126752,15.28317834,.00056688,92.0091,297.7471,71.9494,288.2372,0,U,43613,999,43628,.21048818E-3,.5806E-4,0
HYSIS,2018-096A,2026-07-12T07:36:51.607872,14.78665637,.00018573,97.9834,259.8668,84.9993,275.1430,0,U,43719,999,41113,.19828202E-4,.94E-6,0
KAZSTSAT,2018-099AB,2026-07-12T01:09:04.236480,14.99951134,.00075521,97.4318,223.8549,353.3964,6.7159,0,U,43783,999,41503,.69756441E-4,.811E-5,0
SAUDISAT 5A,2018-102A,2026-07-12T07:24:59.748768,15.28302608,.00106749,97.3058,254.4076,52.8191,307.4022,0,U,43831,999,41951,.1237895E-3,.3344E-4,0
SAUDISAT 5B,2018-102C,2026-07-12T07:46:12.425088,15.28546441,.00114424,97.3168,257.5373,54.1427,306.0874,0,U,43833,999,41963,.11126423E-3,.3021E-4,0
GAOFEN-10R,2019-066A,2026-07-12T07:40:59.962080,14.83053514,.00069895,98.0514,147.0837,60.4865,299.7045,0,U,44622,999,36610,.82371404E-4,.615E-5,0
CARTOSAT-3,2019-081A,2026-07-12T07:36:34.969824,15.19311375,.00132733,97.4298,254.7784,70.2124,290.0541,0,U,44804,999,36728,.12878419E-3,.2656E-4,0
GAOFEN-12 01,2019-082A,2026-07-12T06:57:21.758688,14.80478190,.00011193,97.8107,199.0074,52.9599,307.1715,0,U,44819,999,35780,.32043558E-4,.195E-5,0
CSG-1,2019-092A,2026-07-12T07:12:26.834976,14.82155346,.00014789,97.8893,16.5398,89.7631,270.3751,0,U,44873,999,35519,.33541338E-4,.215E-5,0
NEMO-HD,2020-061F,2026-07-12T06:17:18.034656,15.45097332,.00010211,97.1911,254.9676,88.0020,272.1346,0,U,46277,999,32585,.15236383E-3,.7119E-4,0
SENTINEL-6A,2020-086A,2026-07-12T03:32:54.973536,12.80930066,.00078072,66.0413,83.2101,269.9092,90.1028,0,U,46984,999,26352,-.23530294E-4,-.66E-6,0
CAS500-1,2021-022A,2026-07-12T06:34:20.409312,15.20162196,.00048783,97.3875,88.0159,178.1478,181.9777,0,U,47932,999,29457,.16199097E-3,.3438E-4,0
GAOFEN-12 02,2021-026A,2026-07-12T05:39:50.635008,14.80314770,.00056439,97.9932,191.3155,139.9685,220.1944,0,U,48079,999,28546,.30890798E-4,.183E-5,0
PLEIADES NEO 3,2021-034A,2026-07-12T07:23:04.167168,14.81679823,.00013857,97.8942,267.7129,95.7489,264.3882,0,U,48268,999,28137,.13034371E-3,.974E-5,0
PLEIADES NEO 4,2021-073E,2026-07-12T06:34:26.418432,14.81673130,.00013213,97.8940,267.6757,93.5370,266.5994,0,U,49070,999,26508,-.1181911E-5,-.61E-6,0
LANDSAT 9,2021-088A,2026-07-11T18:43:41.190240,14.57096084,.00009546,98.2273,262.6577,82.6088,277.5219,0,U,49260,999,25458,.43165751E-4,.149E-5,0
CSG-2,2022-008A,2026-07-12T06:23:46.938336,14.82148350,.00015239,97.8893,16.5011,85.8573,274.2815,0,U,51444,999,24030,.36321691E-4,.237E-5,0
GAOFEN-12 03,2022-069A,2026-07-12T06:29:07.407168,14.80074032,.00025143,97.8253,80.5052,74.9892,285.1599,0,U,52912,999,21832,.88974136E-4,.623E-5,0
SWOT,2022-173A,2026-07-12T05:04:41.708640,14.00172234,.00002805,77.6107,1.5258,79.0614,281.0569,0,U,54754,999,18265,.56623627E-4,.81E-6,0
GAOFEN-12 04,2023-123A,2026-07-12T06:56:38.632128,14.79772071,.00036554,97.9104,110.9329,56.4229,303.7331,0,U,57654,999,15634,.6344039E-4,.426E-5,0
PARS 1,2024-039Q,2026-07-12T07:10:02.982432,15.46248042,.0010135,97.4830,175.0205,36.2759,323.9176,0,U,59065,999,13252,.14779227E-3,.7188E-4,0
RESURS-P 4,2024-061A,2026-07-12T06:37:33.228192,15.32269433,.00032122,97.2758,140.7412,93.7667,266.3942,0,U,59371,999,12760,.61141564E-4,.1829E-4,0
LEGION 1,2024-081A,2026-07-12T07:06:55.045152,15.16832109,.00076857,97.5015,270.8869,281.6898,78.3472,0,U,59625,999,12134,.11342218E-3,.2164E-4,0
LEGION 2,2024-081B,2026-07-12T04:40:37.093728,15.16810525,.00100672,97.5014,270.8832,245.1925,114.8262,0,U,59626,999,12133,.97912706E-4,.1858E-4,0
ALOS-4 (DAICHI-4),2024-123A,2026-07-12T07:37:50.493792,14.79476789,.00015936,97.9221,290.1332,97.6292,262.5101,0,U,60182,999,10959,.10827078E-3,.757E-5,0
LEGION 3,2024-146A,2026-07-12T05:43:51.380832,15.15644370,.00084768,45.0011,256.2351,318.1275,41.8955,0,U,60452,999,10582,.11629012E-3,.1986E-4,0
LEGION 4,2024-146B,2026-07-11T21:49:01.373088,15.15665630,.0008939,45.0028,349.8695,92.8389,267.3512,0,U,60453,999,10462,.16249E-3,.2882E-4,0
SENTINEL-2C,2024-157A,2026-07-12T03:18:07.632576,14.30815122,.00009426,98.5685,267.5657,100.4834,259.6456,0,U,60989,999,9655,.28739081E-4,.32E-6,0
IONOSFERA-M 1,2024-199A,2026-07-12T07:12:09.364896,14.22758695,.00021919,98.7140,66.2034,76.5613,283.5810,0,U,61735,999,13127,.31817762E-4,.27E-6,0
