GAOFEN-11 01            
1 43585U 18063A   26193.32420692  .00009904  00000+0  14376-3 0  9997
2 43585  97.1288 260.1425 0002894 210.9340 149.1745 15.56011015444259
ICESAT-2                
1 43613U 18070A   26193.23358943  .00005806  00000+0  21049-3 0  9998
2 43613  92.0091 297.7471 0005668  71.9494 288.2372 15.28317834436283
HYSIS                   
1 43719U 18096A   26193.31726398  .00000094  00000+0  19828-4 0  9992
2 43719  97.9834 259.8668 0001857  84.9993 275.1430 14.78665637411138
KAZSTSAT                
1 43783U 18099AB  26193.04796570  .00000811  00000+0  69756-4 0  9997
2 43783  97.4318 223.8549 0007552 353.3964   6.7159 14.99951134415031
SAUDISAT 5A             
1 43831U 18102A   26193.30902487  .00003344  00000+0  12379-3 0  9993
2 43831  97.3058 254.4076 0010674  52.8191 307.4022 15.28302608419518
SAUDISAT 5B             
1 43833U 18102C   26193.32375492  .00003021  00000+0  11126-3 0  9998
2 43833  97.3168 257.5373 0011442  54.1427 306.0874 15.28546441419635
GAOFEN-10R              
1 44622U 19066A   26193.32013845  .00000615  00000+0  82371-4 0  9993
2 44622  98.0514 147.0837 0006989  60.4865 299.7045 14.83053514366104
CARTOSAT-3              
1 44804U 19081A   26193.31707141  .00002656  00000+0  12878-3 0  9991
2 44804  97.4298 254.7784 0013273  70.2124 290.0541 15.19311375367283
GAOFEN-12 01            
1 44819U 19082A   26193.28983517  .00000195  00000+0  32044-4 0  9991
2 44819  97.8107 199.0074 0001119  52.9599 307.1715 14.80478190357800
CSG-1                   
1 44873U 19092A   26193.30031059  .00000215  00000+0  33541-4 0  9996
2 44873  97.8893  16.5398 0001478  89.7631 270.3751 14.82155346355195
NEMO-HD                 
1 46277U 20061F   26193.26201429  .00007119  00000+0  15236-3 0  9999
2 46277  97.1911 254.9676 0001021  88.0020 272.1346 15.45097332325854
SENTINEL-6A             
1 46984U 20086A   26193.14785849 -.00000066  00000+0 -23530-4 0  9994
2 46984  66.0413  83.2101 0007807 269.9092  90.1028 12.80930066263520
CAS500-1                
1 47932U 21022A   26193.27384733  .00003438  00000+0  16199-3 0  9996
2 47932  97.3875  88.0159 0004878 178.1478 181.9777 15.20162196294570
GAOFEN-12 02            
1 48079U 21026A   26193.23600272  .00000183  00000+0  30891-4 0  9998
2 48079  97.9932 191.3155 0005643 139.9685 220.1944 14.80314770285465
PLEIADES NEO 3          
1 48268U 21034A   26193.30768712  .00000974  00000+0  13034-3 0  9996
2 48268  97.8942 267.7129 0001385  95.7489 264.3882 14.81679823281375
PLEIADES NEO 4          
1 49070U 21073E   26193.27391688 -.00000061  00000+0 -11819-5 0  9991
2 49070  97.8940 267.6757 0001321  93.5370 266.5994 14.81673130265089
LANDSAT 9               
1 49260U 21088A   26192.78033785  .00000149  00000+0  43166-4 0  9998
2 49260  98.2273 262.6577 0000954  82.6088 277.5219 14.57096084254580
CSG-2                   
1 51444U 22008A   26193.26651549  .00000237  00000+0  36322-4 0  9990
2 51444  97.8893  16.5011 0001523  85.8573 274.2815 14.82148350240309
GAOFEN-12 03            
1 52912U 22069A   26193.27022462  .00000623  00000+0  88974-4 0  9994
2 52912  97.8253  80.5052 0002514  74.9892 285.1599 14.80074032218320
SWOT                    
1 54754U 22173A   26193.21159385  .00000081  00000+0  56624-4 0  9990
2 54754  77.6107   1.5258 0000280  79.0614 281.0569 14.00172234182650
GAOFEN-12 04            
1 57654U 23123A   26193.28933602  .00000426  00000+0  63440-4 0  9994
2 57654  97.9104 110.9329 0003655  56.4229 303.7331 14.79772071156345
PARS 1                  
1 59065U 24039Q   26193.29864563  .00007188  00000+0  14779-3 0  9991
2 59065  97.4830 175.0205 0010135  36.2759 323.9176 15.46248042132520
RESURS-P 4              
1 59371U 24061A   26193.27607903  .00001829  00000+0  61142-4 0  9990
2 59371  97.2758 140.7412 0003212  93.7667 266.3942 15.32269433127606
LEGION 1                
1 59625U 24081A   26193.29647043  .00002164  00000+0  11342-3 0  9994
2 59625  97.5015 270.8869 0007685 281.6898  78.3472 15.16832109121342
LEGION 2                
1 59626U 24081B   26193.19487377  .00001858  00000+0  97913-4 0  9994
2 59626  97.5014 270.8832 0010067 245.1925 114.8262 15.16810525121336
ALOS-4 (DAICHI-4)       
1 60182U 24123A   26193.31794553  .00000757  00000+0  10827-3 0  9996
2 60182  97.9221 290.1332 0001593  97.6292 262.5101 14.79476789109595
LEGION 3                
1 60452U 24146A   26193.23878913  .00001986  00000+0  11629-3 0  9991
2 60452  45.0011 256.2351 0008476 318.1275  41.8955 15.15644370105820
LEGION 4                
1 60453U 24146B   26192.90904367  .00002882  00000+0  16249-3 0  9997
2 60453  45.0028 349.8695 0008939  92.8389 267.3512 15.15665630104628
SENTINEL-2C             
1 60989U 24157A   26193.13758834  .00000032  00000+0  28739-4 0  9998
2 60989  98.5685 267.5657 0000942 100.4834 259.6456 14.30815122 96557
IONOSFERA-M 1           
1 61735U 24199A   26193.30010839  .00000027  00000+0  31818-4 0  9995
2 61735  98.7140  66.2034 0002191  76.5613 283.5810 14.22758695131275
